HULIANWANG DIGUI 19H    
1 67529U 26013H   26020.94151450 -.00000020  00000+0  89881-4 0  9990
2 67529  50.0012 178.6197 0008853 240.5686 119.4333 13.98471717   229
HULIANWANG DIGUI 19J    
1 67530U 26013J   26020.94140222 -.00000020  00000+0  90003-4 0  9995
2 67530  50.0047 178.6258 0008322 245.3323 114.6713 13.98568455   224
CZ-12 R/B               
1 67531U 26013K   26020.92374552  .00000588  00000+0  37714-3 0  9996
2 67531  49.9894 178.5776 0069040 133.5031 227.1644 14.14453787   227
