CCSDS_OMM_VERS = 2.0
CREATION_DATE  = 
ORIGINATOR     = 

OBJECT_NAME    = HULIANWANG DIGUI 19H
OBJECT_ID      = 2026-013H
CENTER_NAME    = EARTH
REF_FRAME      = TEME
TIME_SYSTEM    = UTC
MEAN_ELEMENT_THEORY = SGP/SGP4

EPOCH          = 2026-01-20T22:35:46.852800
MEAN_MOTION    = 13.98471717
ECCENTRICITY   = .00088531
INCLINATION    = 50.0012
RA_OF_ASC_NODE = 178.6197
ARG_OF_PERICENTER = 240.5686
MEAN_ANOMALY   = 119.4333

EPHEMERIS_TYPE = 0
CLASSIFICATION_TYPE = U
NORAD_CAT_ID   = 67529
ELEMENT_SET_NO = 999
REV_AT_EPOCH   = 22
BSTAR          = .89880581E-4
MEAN_MOTION_DOT = -.2E-6
MEAN_MOTION_DDOT = 0

CCSDS_OMM_VERS = 2.0
CREATION_DATE  = 
ORIGINATOR     = 

OBJECT_NAME    = HULIANWANG DIGUI 19J
OBJECT_ID      = 2026-013J
CENTER_NAME    = EARTH
REF_FRAME      = TEME
TIME_SYSTEM    = UTC
MEAN_ELEMENT_THEORY = SGP/SGP4

EPOCH          = 2026-01-20T22:35:37.151808
MEAN_MOTION    = 13.98568455
ECCENTRICITY   = .00083223
INCLINATION    = 50.0047
RA_OF_ASC_NODE = 178.6258
ARG_OF_PERICENTER = 245.3323
MEAN_ANOMALY   = 114.6713

EPHEMERIS_TYPE = 0
CLASSIFICATION_TYPE = U
NORAD_CAT_ID   = 67530
ELEMENT_SET_NO = 999
REV_AT_EPOCH   = 22
BSTAR          = .90002538E-4
MEAN_MOTION_DOT = -.2E-6
MEAN_MOTION_DDOT = 0

CCSDS_OMM_VERS = 2.0
CREATION_DATE  = 
ORIGINATOR     = 

OBJECT_NAME    = CZ-12 R/B
OBJECT_ID      = 2026-013K
CENTER_NAME    = EARTH
REF_FRAME      = TEME
TIME_SYSTEM    = UTC
MEAN_ELEMENT_THEORY = SGP/SGP4

EPOCH          = 2026-01-20T22:10:11.612928
MEAN_MOTION    = 14.14453787
ECCENTRICITY   = .00690405
INCLINATION    = 49.9894
RA_OF_ASC_NODE = 178.5776
ARG_OF_PERICENTER = 133.5031
MEAN_ANOMALY   = 227.1644

EPHEMERIS_TYPE = 0
CLASSIFICATION_TYPE = U
NORAD_CAT_ID   = 67531
ELEMENT_SET_NO = 999
REV_AT_EPOCH   = 22
BSTAR          = .37714145E-3
MEAN_MOTION_DOT = .588E-5
MEAN_MOTION_DDOT = 0

